[{"OBJECT_NAME":"IRIDIUM 146","OBJECT_ID":"2018-030F","EPOCH":"2026-03-09T19:45:19.387584","MEAN_MOTION":14.34218061,"ECCENTRICITY":0.00021492,"INCLINATION":86.4005,"RA_OF_ASC_NODE":331.9763,"ARG_OF_PERICENTER":89.3889,"MEAN_ANOMALY":270.7553,"EPHEMERIS_TYPE":0,"CLASSIFICATION_TYPE":"U","NORAD_CAT_ID":43254,"ELEMENT_SET_NO":999,"REV_AT_EPOCH":41589,"BSTAR":7.1120516e-5,"MEAN_MOTION_DOT":2.19e-6,"MEAN_MOTION_DDOT":0},{"OBJECT_NAME":"SL-3 DEB","OBJECT_ID":"1983-109C","EPOCH":"2026-03-09T08:16:26.499360","MEAN_MOTION":14.26382205,"ECCENTRICITY":0.00950741,"INCLINATION":81.1597,"RA_OF_ASC_NODE":106.9937,"ARG_OF_PERICENTER":153.1797,"MEAN_ANOMALY":338.958,"EPHEMERIS_TYPE":0,"CLASSIFICATION_TYPE":"U","NORAD_CAT_ID":14454,"ELEMENT_SET_NO":999,"REV_AT_EPOCH":20273,"BSTAR":4.7737064e-5,"MEAN_MOTION_DOT":1.34e-6,"MEAN_MOTION_DDOT":0}]
